ONEWEB-0456             
1 51646U 22012AA  25338.24992353  .00000312  00000+0  85805-3 0  9991
2 51646  87.8826  75.0903 0001753  99.4862 260.6464 13.10376286183817
ONEWEB-0457             
1 51647U 22012AB  25338.30304611 -.00002597  00000+0 -74785-2 0  9996
2 51647  87.8809  75.1279 0001292 114.8578 245.2684 13.10355043183822
ONEWEB-0458             
1 51648U 22012AC  25338.32461961  .00000214  00000+0  57633-3 0  9997
2 51648  87.8819  75.0963 0001704 109.3328 250.7984 13.10376918183786
ONEWEB-0461             
1 51649U 22012AD  25338.22500877  .00000019  00000+0  16880-4 0  9990
2 51649  87.9127  44.6123 0001638  99.6953 260.4364 13.17649414188215
ONEWEB-0463             
1 51650U 22012AE  25338.20644383  .00000083  00000+0  18113-3 0  9992
2 51650  87.9108  44.6615 0001740 103.0061 257.1265 13.17648716187997
ONEWEB-0464             
1 51651U 22012AF  25338.32129305 -.00000006  00000+0 -52457-4 0  9995
2 51651  87.8811  75.1332 0001828  98.9217 261.2117 13.10376431183808
ONEWEB-0468             
1 51652U 22012AG  25338.25158109  .00000377  00000+0  10429-2 0  9992
2 51652  87.8811  75.1404 0001832 104.7955 255.3376 13.10375539183774
ONEWEB-0473             
1 51653U 22012AH  25338.31298876 -.00000439  00000+0 -12926-2 0  9991
2 51653  87.8811  75.1315 0001686 106.9665 253.1647 13.10375739183785
ONEWEB-0474             
1 51654U 22012AJ  25338.30468469 -.00000672  00000+0 -19619-2 0  9993
2 51654  87.8816  75.0989 0001910 103.1900 256.9440 13.10373567183776
ONEWEB-0475             
1 51655U 22012AK  25338.21825390  .00000026  00000+0  34613-4 0  9998
2 51655  87.9118  44.6474 0002423 107.6581 252.4816 13.17648357188017
ONEWEB-0490             
1 54113U 22138A   25338.28542649  .00000060  00000+0  11719-3 0  9998
2 54113  87.9211 343.7371 0001993  87.8338 272.3023 13.19724018151126
ONEWEB-0492             
1 54114U 22138B   25338.00742642 -.00000002  00000+0 -36214-4 0  9990
2 54114  87.9200 343.8080 0001875  85.3142 274.8205 13.19724369151092
ONEWEB-0495             
1 54115U 22138C   25338.28856992 -.00000290  00000+0 -75598-3 0  9991
2 54115  87.9194 343.7564 0002462  84.9818 275.1596 13.19724524151112
ONEWEB-0497             
1 54116U 22138D   25338.30121311 -.00000007  00000+0 -48587-4 0  9990
2 54116  87.9200 343.7397 0001877  88.8885 271.2463 13.19723178151104
ONEWEB-0499             
1 54117U 22138E   25338.28464321  .00000067  00000+0  13544-3 0  9997
2 54117  87.9199 343.7564 0001958  93.3369 266.7988 13.19725181151114
ONEWEB-0500             
1 54118U 22138F   25338.28699961  .00000070  00000+0  14306-3 0  9999
2 54118  87.9202 343.7432 0001751  88.1751 271.9582 13.19723537151124
ONEWEB-0501             
1 54119U 22138G   25338.31701652  .00000058  00000+0  11305-3 0  9997
2 54119  87.9210 343.7350 0002163  88.3148 271.8233 13.19724129151101
ONEWEB-0502             
1 54120U 22138H   25338.30279973 -.00000045  00000+0 -14544-3 0  9990
2 54120  87.9207 343.7194 0002058  92.1310 268.0058 13.19723812151125
ONEWEB-0503             
1 54121U 22138J   25338.06428549  .00000070  00000+0  14164-3 0  9993
2 54121  87.9208 343.7709 0001811  99.3520 260.7818 13.19723797151087
ONEWEB-0504             
1 54122U 22138K   25338.05164212  .00000085  00000+0  18026-3 0  9994
2 54122  87.9203 343.7899 0002080  93.4596 266.6775 13.19723644151099
ONEWEB-0505             
1 54123U 22138L   25338.27594321  .00000165  00000+0  37868-3 0  9991
2 54123  87.9211 343.7350 0002360  90.0437 270.0966 13.19724025151106
ONEWEB-0506             
1 54124U 22138M   25338.02322273  .00000093  00000+0  20093-3 0  9992
2 54124  87.9206 343.7823 0001969  90.4034 269.7324 13.19724543151060
ONEWEB-0507             
1 54125U 22138N   25338.27120786 -.00000108  00000+0 -30199-3 0  9992
2 54125  87.9189 343.7695 0002011  87.6198 272.5165 13.19722362151147
ONEWEB-0508             
1 54126U 22138P   25338.26805305  .00000049  00000+0  89976-4 0  9999
2 54126  87.9199 343.7631 0002110  85.2755 274.8619 13.19724533151121
ONEWEB-0509             
1 54127U 22138Q   25337.93950180  .00000030  00000+0  43123-4 0  9999
2 54127  87.9209 343.7983 0001912  89.2334 270.9018 13.19723152151058
ONEWEB-0510             
1 54128U 22138R   25337.98198207 -.00000091  00000+0 -25659-3 0  9991
2 54128  87.9186 313.3653 0001253  88.6572 271.4705 13.20772837153513
ONEWEB-0511             
1 54129U 22138S   25337.93635112 -.00000005  00000+0 -44064-4 0  9995
2 54129  87.9209 343.8023 0001884  99.0204 261.1142 13.19724365151089
ONEWEB-0512             
1 54130U 22138T   25338.30753634  .00000009  00000+0 -10687-4 0  9996
2 54130  87.9193 343.7539 0002157  92.3605 267.7774 13.19724033151107
ONEWEB-0513             
1 54131U 22138U   25338.08943893 -.00000015  00000+0 -70401-4 0  9998
2 54131  87.9211 343.7585 0002286 100.1240 260.0151 13.20321394150970
ONEWEB-0514             
1 54132U 22138V   25338.02005384  .00000085  00000+0  17912-3 0  9999
2 54132  87.9197 343.7956 0001691  92.7902 267.3425 13.19724140151087
ONEWEB-0515             
1 54133U 22138W   25338.19663520  .00000049  00000+0  87680-4 0  9990
2 54133  87.9196 313.3084 0001284  57.2188 302.9069 13.20769316153563
ONEWEB-0516             
1 54134U 22138X   25337.99479218  .00000055  00000+0  10517-3 0  9998
2 54134  87.9190 343.8214 0001861  85.6723 274.4622 13.19724172151084
ONEWEB-0517             
1 54135U 22138Y   25338.27752358  .00007614  00000+0  18980-1 0  9998
2 54135  87.9209 343.7435 0001285  87.4343 272.6937 13.19687543151122
ONEWEB-0518             
1 54136U 22138Z   25338.06902456  .00000062  00000+0  12348-3 0  9996
2 54136  87.9189 343.8085 0001971  89.2439 270.8919 13.19723719151092
ONEWEB-0519             
1 54137U 22138AA  25338.24594033 -.00000918  00000+0 -23254-2 0  9994
2 54137  87.9207 343.7411 0001747  97.6092 262.5239 13.19713612151123
ONEWEB-0520             
1 54138U 22138AB  25338.28068374  .00000079  00000+0  16445-3 0  9994
2 54138  87.9211 343.7384 0002085  87.6990 272.4382 13.19723733151113
ONEWEB-0521             
1 54139U 22138AC  25338.31385386 -.00000003  00000+0 -40696-4 0  9999
2 54139  87.9208 343.7166 0001709  98.3037 261.8290 13.19724397151062
ONEWEB-0522             
1 54140U 22138AD  25338.06587218  .00000050  00000+0  93310-4 0  9992
2 54140  87.9207 343.7671 0001963  90.3296 269.8062 13.19725955151072
ONEWEB-0523             
1 54141U 22138AE  25338.18400409  .00000043  00000+0  74362-4 0  9990
2 54141  87.9184 313.3296 0000965  87.6643 272.4601 13.20773442153560
ONEWEB-0524             
1 54142U 22138AF  25338.17296684 -.00000040  00000+0 -13142-3 0  9995
2 54142  87.9186 313.3341 0001569  52.9778 307.1499 13.20770339153562
ONEWEB-0525             
1 54143U 22138AG  25338.31227637  .00000005  00000+0 -18994-4 0  9995
2 54143  87.9201 343.7386 0002053  87.4477 272.6890 13.19724183151120
ONEWEB-0526             
1 54144U 22138AH  25338.26962138  .00000045  00000+0  79875-4 0  9990
2 54144  87.9208 343.7353 0001867  88.1492 271.9855 13.19723429151090
ONEWEB-0529             
1 54145U 22138AJ  25338.04533340  .00000152  00000+0  34854-3 0  9992
2 54145  87.9192 343.8084 0002023  87.0443 273.0921 13.19724437151080
ONEWEB-0531             
1 54146U 22138AK  25338.31027328 -.00000085  00000+0 -24200-3 0  9998
2 54146  87.9194 313.2992 0000939  65.9358 294.1873 13.20769150153586
ONEWEB-0535             
1 54147U 22138AL  25338.30595022 -.00000021  00000+0 -85553-4 0  9998
2 54147  87.9206 343.7230 0001401  96.9399 263.1894 13.19726109151131
ONEWEB-0536             
1 54148U 22138AM  25338.29764625  .00000099  00000+0  21245-3 0  9994
2 54148  87.9186 313.3458 0001017  54.1902 305.9326 13.20773766153571
ONEWEB-0527             
1 54642U 22166A   25338.25246860  .00000045  00000+0  78414-4 0  9998
2 54642  87.9209 282.8807 0001820  77.1556 282.9781 13.21826931145783
ONEWEB-0528             
1 54643U 22166B   25338.25906430  .00000012  00000+0 -30066-5 0  9992
2 54643  87.9210 282.8832 0001872  76.1666 283.9676 13.21827421145792
ONEWEB-0539             
1 54644U 22166C   25338.29691796  .00000012  00000+0 -24565-5 0  9990
2 54644  87.9209 282.8417 0001931  83.2962 276.8392 13.21825196145797
ONEWEB-0540             
1 54645U 22166D   25338.30361847  .00000008  00000+0 -12982-4 0  9998
2 54645  87.9207 282.8783 0001771  83.9411 276.1924 13.21823510145781
ONEWEB-0542             
1 54646U 22166E   25338.30677486 -.00000040  00000+0 -12913-3 0  9998
2 54646  87.9205 282.8363 0001859  90.8235 269.3112 13.21823540145799
ONEWEB-0545             
1 54647U 22166F   25338.27222462  .00000076  00000+0  15227-3 0  9993
2 54647  87.9209 282.8635 0001926  89.9133 270.2222 13.21818252145750
ONEWEB-0580             
1 54648U 22166G   25338.24590301  .00000024  00000+0  26864-4 0  9994
2 54648  87.9209 282.8677 0001723  90.0312 270.1020 13.21824394145797
ONEWEB-0582             
1 54649U 22166H   25338.28868320  .00000043  00000+0  71631-4 0  9991
2 54649  87.9211 282.8522 0001793  95.1277 265.0062 13.21824101145776
ONEWEB-0583             
1 54650U 22166J   25338.30020103  .00000017  00000+0  10586-4 0  9998
2 54650  87.9206 282.8747 0001865  81.8036 278.3309 13.21823988145780
ONEWEB-0584             
1 54651U 22166K   25338.24424086 -.00000010  00000+0 -54694-4 0  9993
2 54651  87.9210 282.8719 0001652  90.0095 270.1228 13.21823392145763
ONEWEB-0585             
1 54652U 22166L   25338.26894055  .00000063  00000+0  12189-3 0  9991
2 54652  87.9210 282.8517 0001776  74.6541 285.4789 13.21826662145776
ONEWEB-0586             
1 54653U 22166M   25338.28211158  .00000004  00000+0 -21441-4 0  9999
2 54653  87.9207 282.8746 0001804  84.3564 275.7776 13.21824228145776
ONEWEB-0587             
1 54654U 22166N   25338.29198010  .00000050  00000+0  90733-4 0  9992
2 54654  87.9219 282.8277 0001832  65.6367 294.4959 13.21825020145933
